SL-16 R/B               
1 23405U 94077B   26198.93009361  .00000079  00000+0  64841-4 0  9990
2 23405  70.9821  78.4856 0004113 301.2483  58.8237 14.15574487634665
ARIANE 40+ R/B          
1 23561U 95021B   26198.20585874  .00000113  00000+0  49737-4 0  9997
2 23561  98.4399 267.8452 0007946 111.3729 267.5651 14.39848217637886
SL-16 R/B               
1 23705U 95058B   26198.66067728  .00000268  00000+0  16117-3 0  9996
2 23705  71.0208 267.3789 0014630 279.6017  80.3453 14.15510072586249
SL-16 R/B               
1 24298U 96051B   26198.69613779  .00000149  00000+0  10747-3 0  9995
2 24298  70.7644 260.0845 0017969 294.8633  65.0618 14.12457496540005
ORBVIEW 2 (SEASTAR)     
1 24883U 97037A   26198.75716152  .00000076  00000+0  42803-4 0  9994
2 24883  98.8716   6.6277 0003014  55.8289 304.3181 14.35567405527137
SL-16 R/B               
1 25400U 98043G   26198.88352488  .00000006  00000+0  21423-4 0  9998
2 25400  98.8380 153.3097 0009896   3.8210 356.3043 14.26072971457541
SL-16 R/B               
1 25407U 98045B   26198.60783270 -.00000081  00000+0 -16894-4 0  9995
2 25407  71.0105 268.3548 0008050 202.9731 157.1034 14.16204925445498
ISS (ZARYA)             
1 25544U 98067A   26198.83085672  .00003846  00000+0  77850-4 0  9996
2 25544  51.6316 148.4431 0006791 307.8623  52.1750 15.49035972576509
CZ-4B R/B               
1 25732U 99025C   26198.63318015 -.00000003  00000+0  19565-4 0  9990
2 25732  98.6471 239.7031 0036519 332.6413 183.5566 14.18287951406580
OKEAN-O                 
1 25860U 99039A   26198.62634029  .00000239  00000+0  37969-4 0  9990
2 25860  97.9300 257.0721 0000873  92.5724 267.5588 14.80498868453618
SL-16 R/B               
1 25861U 99039B   26198.61988715  .00000208  00000+0  33040-4 0  9996
2 25861  97.9822 257.3936 0014505 190.3788 169.7128 14.81872032456103
DELTA 2 R/B             
1 25876U 99041E   26198.89441861  .00000985  00000+0  19723-3 0  9994
2 25876  51.7612 141.1107 0501430  12.7252 348.5812 14.12091819381424
HELIOS 1B               
1 25977U 99064A   26198.70704353  .00000558  00000+0  67035-4 0  9995
2 25977  98.1581 104.7269 0001793  51.8317 308.3060 14.88078208704599
TERRA                   
1 25994U 99068A   26198.91099444  .00000158  00000+0  41180-4 0  9998
2 25994  97.9439 247.2365 0003512 117.4238 346.6126 14.61124864414091
SL-16 R/B               
1 26070U 00006B   26198.65688508  .00000005  00000+0  26964-4 0  9998
2 26070  71.0003 184.5569 0017297 336.6022  23.4312 14.15838008366956
TITAN 4B R/B            
1 26474U 00047B   26198.92191435  .00001237  00000+0  81917-4 0  9996
2 26474  67.9873  34.0503 0045759 256.0551 103.5507 15.10340723412570
ENVISAT                 
1 27386U 02009A   26198.83657087  .00000017  00000+0  19246-4 0  9990
2 27386  98.3847 149.4742 0001315  83.0306 308.9231 14.39071033277898
IDEFIX & ARIANE 42P R/B 
1 27422U 02021B   26198.82308119  .00000079  00000+0  46742-4 0  9992
2 27422  98.5941 135.9751 0012062 158.8165 201.3520 14.31094379262634
AQUA                    
1 27424U 02022A   26198.90991753  .00000351  00000+0  79553-4 0  9995
2 27424  98.4298 168.8109 0001235 101.5647 282.8474 14.62130787287763
CZ-4B R/B               
1 27432U 02024C   26198.80823601 -.00000008  00000+0  18807-4 0  9996
2 27432  98.8684 251.4268 0050334  14.6108 104.8570 14.14568414247631
MIDORI II (ADEOS-II)    
1 27597U 02056A   26198.86859271  .00000093  00000+0  54255-4 0  9991
2 27597  98.7896 158.3924 0001371  37.5397 322.5880 14.29363760228895
H-2A R/B                
1 27601U 02056E   26198.92331058  .00000120  00000+0  56480-4 0  9995
2 27601  98.3330 154.4804 0071012 132.8891 274.5541 14.33834755232775
CZ-4B R/B               
1 28059U 03049C   26198.96855430  .00000114  00000+0  37751-4 0  9998
2 28059  98.6911 199.0426 0047801 192.7412 167.2580 14.55117085205549
CZ-2C R/B               
1 28222U 04012C   26198.83253205  .00110841  00000+0  45171-3 0  9992
2 28222  97.7048 278.2186 0010855 183.6448 176.4744 15.85773569224748
SL-16 R/B               
1 28353U 04021B   26198.77954013 -.00000086  00000+0 -20107-4 0  9999
2 28353  71.0030 319.4851 0006211 222.9745 137.0893 14.14616490141234
CZ-4B R/B               
1 28415U 04035C   26198.52787322  .00003704  00000+0  12464-3 0  9997
2 28415  97.3352 231.2656 0029415 223.9665 135.9236 15.31010002199764
CZ-2C R/B               
1 28480U 04046B   26198.69240183  .00000061  00000+0  37348-4 0  9990
2 28480  98.1913 105.5621 0140269 130.0520 231.3065 14.27033685127041
ARIANE 5 R/B            
1 28499U 04049H   26198.91339208  .00000234  00000+0  32781-4 0  9993
2 28499  98.2745  12.3587 0082552 289.3313  69.8988 14.85480486165127
CZ-2D R/B               
1 28738U 05024B   26198.97844353  .00045979  00000+0  33769-3 0  9992
2 28738  97.3468 220.0227 0002856 185.0708 175.0528 15.72995501160179
ALOS (DAICHI)           
1 28931U 06002A   26198.85560307  .00000473  00000+0  86937-4 0  9991
2 28931  98.1339 154.3314 0000870 104.7723 255.3579 14.70104768 92609
