OBJECT_NAME,OBJECT_ID,EPOCH,MEAN_MOTION,ECCENTRICITY,INCLINATION,RA_OF_ASC_NODE,ARG_OF_PERICENTER,MEAN_ANOMALY,EPHEMERIS_TYPE,CLASSIFICATION_TYPE,NORAD_CAT_ID,ELEMENT_SET_NO,REV_AT_EPOCH,BSTAR,MEAN_MOTION_DOT,MEAN_MOTION_DDOT
SL-16 R/B,1994-077B,2026-07-17T22:19:20.087904,14.15574487,.00041132,70.9821,78.4856,301.2483,58.8237,0,U,23405,999,63466,.64840806E-4,.79E-6,0
ARIANE 40+ R/B,1995-021B,2026-07-17T04:56:26.195136,14.39848217,.00079464,98.4399,267.8452,111.3729,267.5651,0,U,23561,999,63788,.49737148E-4,.113E-5,0
SL-16 R/B,1995-058B,2026-07-17T15:51:22.516992,14.15510072,.001463,71.0208,267.3789,279.6017,80.3453,0,U,23705,999,58624,.16117023E-3,.268E-5,0
SL-16 R/B,1996-051B,2026-07-17T16:42:26.305056,14.12457496,.0017969,70.7644,260.0845,294.8633,65.0618,0,U,24298,999,54000,.1074724E-3,.149E-5,0
ORBVIEW 2 (SEASTAR),1997-037A,2026-07-17T18:10:18.755328,14.35567405,.00030143,98.8716,6.6277,55.8289,304.3181,0,U,24883,999,52713,.42802982E-4,.76E-6,0
SL-16 R/B,1998-043G,2026-07-17T21:12:16.549632,14.26072971,.00098962,98.8380,153.3097,3.8210,356.3043,0,U,25400,999,45754,.21422557E-4,.6E-7,0
SL-16 R/B,1998-045B,2026-07-17T14:35:16.745280,14.16204925,.000805,71.0105,268.3548,202.9731,157.1034,0,U,25407,999,44549,-.16894E-4,-.81E-6,0
ISS (ZARYA),1998-067A,2026-07-17T19:56:26.020608,15.49035972,.00067917,51.6316,148.4431,307.8623,52.1750,0,U,25544,999,57650,.77849885E-4,.3846E-4,0
CZ-4B R/B,1999-025C,2026-07-17T15:11:46.764960,14.18287951,.0036519,98.6471,239.7031,332.6413,183.5566,0,U,25732,999,40658,.19565E-4,-.3E-7,0
OKEAN-O,1999-039A,2026-07-17T15:01:55.801056,14.80498868,.0000873,97.9300,257.0721,92.5724,267.5588,0,U,25860,999,45361,.37969273E-4,.239E-5,0
SL-16 R/B,1999-039B,2026-07-17T14:52:38.249760,14.81872032,.0014505,97.9822,257.3936,190.3788,169.7128,0,U,25861,999,45610,.3304E-4,.208E-5,0
DELTA 2 R/B,1999-041E,2026-07-17T21:27:57.767904,14.12091819,.05014309,51.7612,141.1107,12.7252,348.5812,0,U,25876,999,38142,.1972288E-3,.985E-5,0
HELIOS 1B,1999-064A,2026-07-17T16:58:08.560992,14.88078208,.0001793,98.1581,104.7269,51.8317,308.3060,0,U,25977,999,70459,.67034803E-4,.558E-5,0
TERRA,1999-068A,2026-07-17T21:51:49.919616,14.61124864,.00035123,97.9439,247.2365,117.4238,346.6126,0,U,25994,999,41409,.41179927E-4,.158E-5,0
SL-16 R/B,2000-006B,2026-07-17T15:45:54.870912,14.15838008,.00172977,71.0003,184.5569,336.6022,23.4312,0,U,26070,999,36695,.26963542E-4,.5E-7,0
TITAN 4B R/B,2000-047B,2026-07-17T22:07:33.399840,15.10340723,.00457592,67.9873,34.0503,256.0551,103.5507,0,U,26474,999,41257,.81917407E-4,.1237E-4,0
ENVISAT,2002-009A,2026-07-17T20:04:39.723168,14.39071033,.00013151,98.3847,149.4742,83.0306,308.9231,0,U,27386,999,27789,.19245952E-4,.17E-6,0
IDEFIX & ARIANE 42P R/B,2002-021B,2026-07-17T19:45:14.214816,14.31094379,.00120625,98.5941,135.9751,158.8165,201.3520,0,U,27422,999,26263,.46741843E-4,.79E-6,0
AQUA,2002-022A,2026-07-17T21:50:16.874592,14.62130787,.00012359,98.4298,168.8109,101.5647,282.8474,0,U,27424,999,28776,.79553143E-4,.351E-5,0
CZ-4B R/B,2002-024C,2026-07-17T19:23:51.591264,14.14568414,.00503345,98.8684,251.4268,14.6108,104.8570,0,U,27432,999,24763,.1880703E-4,-.8E-7,0
MIDORI II (ADEOS-II),2002-056A,2026-07-17T20:50:46.410144,14.29363760,.00013714,98.7896,158.3924,37.5397,322.5880,0,U,27597,999,22889,.54254672E-4,.93E-6,0
H-2A R/B,2002-056E,2026-07-17T22:09:34.034112,14.33834755,.00710123,98.3330,154.4804,132.8891,274.5541,0,U,27601,999,23277,.56479963E-4,.12E-5,0
CZ-4B R/B,2003-049C,2026-07-17T23:14:43.091520,14.55117085,.00478012,98.6911,199.0426,192.7412,167.2580,0,U,28059,999,20554,.37751289E-4,.114E-5,0
CZ-2C R/B,2004-012C,2026-07-17T19:58:50.769120,15.85773569,.00108559,97.7048,278.2186,183.6448,176.4744,0,U,28222,999,22474,.45170744E-3,.110841E-2,0
SL-16 R/B,2004-021B,2026-07-17T18:42:32.267232,14.14616490,.0006211,71.0030,319.4851,222.9745,137.0893,0,U,28353,999,14123,-.20107006E-4,-.86E-6,0
CZ-4B R/B,2004-035C,2026-07-17T12:40:08.246208,15.31010002,.0029415,97.3352,231.2656,223.9665,135.9236,0,U,28415,999,19976,.12464E-3,.3704E-4,0
CZ-2C R/B,2004-046B,2026-07-17T16:37:03.518112,14.27033685,.01402697,98.1913,105.5621,130.0520,231.3065,0,U,28480,999,12704,.37348387E-4,.61E-6,0
ARIANE 5 R/B,2004-049H,2026-07-17T21:55:17.075712,14.85480486,.00825523,98.2745,12.3587,289.3313,69.8988,0,U,28499,999,16512,.32781202E-4,.234E-5,0
CZ-2D R/B,2005-024B,2026-07-17T23:28:57.520992,15.72995501,.00028567,97.3468,220.0227,185.0708,175.0528,0,U,28738,999,16017,.33768806E-3,.45979E-3,0
ALOS (DAICHI),2006-002A,2026-07-17T20:32:04.105248,14.70104768,.00008703,98.1339,154.3314,104.7723,255.3579,0,U,28931,999,9260,.86937074E-4,.473E-5,0
